1 39156U 13019B   24227.11662760 -.00000000  00000-0  00000+0 0  9994
2 39156  64.9298 102.9624 0062941  90.9500 269.8489  2.08292116 85979
1 39156U 13019B   24227.11662760  .00000000  00000-0  00000-0 0  9994
2 39156  64.9298 102.9624 0062941  90.9500 269.8489  2.08292116 85744
1 39156U 13019B   24227.59672544  .00000004  00000-0  00000-0 0  9991
2 39156  64.9300 102.9470 0062952  90.9523 269.8479  2.08292109 85756
1 39156U 13019B   24228.07682374  .00000008  00000-0  00000-0 0  9991
2 39156  64.9302 102.9315 0062962  90.9602 269.8415  2.08292102 85769
1 39156U 13019B   24229.03702129  .00000017  00000-0  00000-0 0  9999
2 39156  64.9306 102.9007 0062972  90.9769 269.8288  2.08292085 85786
1 39156U 13019B   24230.95741807  .00000034  00000-0  00000+0 0  9996
2 39156  64.9317 102.8390 0062969  90.9806 269.8343  2.08292055 86050
1 39156U 13019B   24230.95741807  .00000034  00000-0  00000-0 0  9997
2 39156  64.9317 102.8390 0062969  90.9806 269.8343  2.08292055 85824
1 39156U 13019B   24232.39771426  .00000041  00000-0  00000-0 0  9995
2 39156  64.9322 102.7927 0063005  90.9774 269.8429  2.08292037 85859
1 39156U 13019B   24237.67875601 -.00000004  00000-0  00000+0 0  9990
2 39156  64.9333 102.6228 0063164  90.9405 269.8666  2.08292053 86190
1 39156U 13019B   24237.67875601 -.00000004  00000-0  00000-0 0  9991
2 39156  64.9333 102.6228 0063164  90.9405 269.8666  2.08292053 85964
1 39156U 13019B   24240.07923360 -.00000014  00000-0  00000+0 0  9995
2 39156  64.9343 102.5458 0063258  90.9692 269.8345  2.08292073 86249
1 39156U 13019B   24240.07923360 -.00000014  00000-0  00000-0 0  9996
2 39156  64.9343 102.5458 0063258  90.9692 269.8345  2.08292073 86014
1 39156U 13019B   24241.51952728 -.00000004  00000-0  00000-0 0  9995
2 39156  64.9350 102.4995 0063294  90.9755 269.8317  2.08292098 86046
1 39156U 13019B   24244.88021603  .00000031  00000-0  00000+0 0  9995
2 39156  64.9366 102.3916 0063252  90.9132 269.9067  2.08292172 86347
1 39156U 13019B   24244.88021603  .00000031  00000-0  00000-0 0  9996
2 39156  64.9366 102.3916 0063252  90.9132 269.9067  2.08292172 86112
1 39156U 13019B   24247.28069795  .00000037  00000-0  00000+0 0  9992
2 39156  64.9374 102.3146 0063182  90.8158 270.0061  2.08292212 86397
1 39156U 13019B   24247.28069795  .00000037  00000-0  00000-0 0  9993
2 39156  64.9374 102.3146 0063182  90.8158 270.0061  2.08292212 86162
1 39156U 13019B   24247.28070229  .00000037  00000-0  00000-0 0  9997
2 39156  64.9374 102.3146 0063317  90.8775 269.9459  2.08292194 86164
1 39156U 13019B   24247.76079784  .00000036  00000-0  00000-0 0  9994
2 39156  64.9376 102.2992 0063322  90.8752 269.9477  2.08292194 86176
1 39156U 13019B   24250.16127070  .00000027  00000-0  00000+0 0  9993
2 39156  64.9386 102.2223 0063348  90.8595 269.9576  2.08292205 86451
1 39156U 13019B   24250.64136504  .00000026  00000-0  00000-0 0  9998
2 39156  64.9388 102.2069 0063362  90.8598 269.9558  2.08292193 86232
1 39156U 13019B   24251.12145917  .00000025  00000-0  00000-0 0  9999
2 39156  64.9390 102.1914 0063368  90.8625 269.9515  2.08292190 86241
1 39156U 13019B   24252.08164772  .00000025  00000-0  00000-0 0  9995
2 39156  64.9394 102.1606 0063378  90.8647 269.9465  2.08292181 86264
1 39156U 13019B   24252.56174229  .00000026  00000-0  00000+0 0  9996
2 39156  64.9396 102.1452 0063383  90.8593 269.9507  2.08292180 86504
1 39156U 13019B   24252.56174229  .00000026  00000-0  00000-0 0  9997
2 39156  64.9396 102.1452 0063383  90.8593 269.9507  2.08292180 86278
1 39156U 13019B   24254.96222151  .00000041  00000-0  00000+0 0  9997
2 39156  64.9408 102.0682 0063409  90.8502 269.9586  2.08292151 86551
1 39156U 13019B   24254.96222151  .00000041  00000-0  00000-0 0  9998
2 39156  64.9408 102.0682 0063409  90.8502 269.9586  2.08292151 86326
1 39156U 13019B   24255.92241652  .00000050  00000-0  00000-0 0  9992
2 39156  64.9413 102.0373 0063423  90.8493 269.9613  2.08292131 86345
1 39156U 13019B   24259.28310301  .00000078  00000-0  00000+0 0  9992
2 39156  64.9428 101.9295 0063461  90.8287 269.9913  2.08292073 86646
1 39156U 13019B   24259.28310301  .00000078  00000-0  00000-0 0  9993
2 39156  64.9428 101.9295 0063461  90.8287 269.9913  2.08292073 86411
1 39156U 13019B   24260.24329618  .00000079  00000-0  00000-0 0  9993
2 39156  64.9433 101.8986 0063482  90.8276 269.9929  2.08292062 86431
1 39156U 13019B   24262.64376663  .00000062  00000-0  00000+0 0  9992
2 39156  64.9443 101.8214 0063512  90.8071 270.0048  2.08292043 86718
1 39156U 13019B   24262.64376663  .00000062  00000-0  00000-0 0  9993
2 39156  64.9443 101.8214 0063512  90.8071 270.0048  2.08292043 86482
1 39156U 13019B   24266.96460306  .00000023  00000-0  00000+0 0  9996
2 39156  64.9465 101.6827 0063578  90.7856 270.0036  2.08292073 86802
1 39156U 13019B   24267.44469867  .00000024  00000-0  00000-0 0  9993
2 39156  64.9467 101.6673 0063584  90.7857 270.0030  2.08292077 86584
1 39156U 13019B   24267.92479510  .00000026  00000-0  00000-0 0  9994
2 39156  64.9470 101.6519 0063595  90.7848 270.0039  2.08292086 86599
1 39156U 13019B   24269.84518496  .00000043  00000-0  00000-0 0  9993
2 39156  64.9479 101.5902 0063616  90.7766 270.0155  2.08292113 86631
1 39156U 13019B   24269.84518497  .00000043  00000-0  00000+0 0  9993
2 39156  64.9479 101.5902 0063619  90.7770 270.0152  2.08292118 86866
1 39156U 13019B   24269.84518497  .00000043  00000-0  00000-0 0  9994
2 39156  64.9479 101.5902 0063619  90.7770 270.0152  2.08292118 86631
1 39156U 13019B   24272.24567400  .00000065  00000-0  00000+0 0  9993
2 39156  64.9491 101.5132 0063635  90.7261 270.0717  2.08292145 86911
1 39156U 13019B   24272.24567400  .00000065  00000-0  00000-0 0  9994
2 39156  64.9491 101.5132 0063635  90.7261 270.0717  2.08292145 86685
1 39156U 13019B   24274.16605905  .00000070  00000-0  00000-0 0  9996
2 39156  64.9502 101.4516 0063668  90.6946 270.1031  2.08292166 86726
1 39156U 13019B   24275.12624879  .00000067  00000-0  00000+0 0  9999
2 39156  64.9507 101.4208 0063679  90.6845 270.1110  2.08292168 86976
1 39156U 13019B   24275.12624879  .00000067  00000-0  00000-0 0  9990
2 39156  64.9507 101.4208 0063679  90.6845 270.1110  2.08292168 86741
1 39156U 13019B   24281.84756511  .00000063  00000-0  00000+0 0  9990
2 39156  64.9538 101.2051 0063719  90.6463 270.1257  2.08292121 87113
1 39156U 13019B   24281.84756511  .00000063  00000-0  00000-0 0  9991
2 39156  64.9538 101.2051 0063719  90.6490 270.1230  2.08292115 86880
1 39156U 13019B   24286.16844118  .00000098  00000-0  00000+0 0  9999
2 39156  64.9557 101.0665 0063748  90.6167 270.1616  2.08292040 87205
1 39156U 13019B   24286.16844118  .00000098  00000-0  00000-0 0  9990
2 39156  64.9557 101.0665 0063748  90.6167 270.1616  2.08292040 86978
1 39156U 13019B   24286.64853818  .00000099  00000-0  00000-0 0  9991
2 39156  64.9559 101.0510 0063749  90.5805 270.1981  2.08292023 86985
1 39156U 13019B   24289.52910531  .00000085  00000-0  00000+0 0  9991
2 39156  64.9572 100.9584 0063770  90.5363 270.2338  2.08292002 87279
1 39156U 13019B   24289.52910531  .00000085  00000-0  00000-0 0  9992
2 39156  64.9572 100.9584 0063770  90.5363 270.2338  2.08292002 87044
1 39156U 13019B   24291.92956494  .00000053  00000-0  00000+0 0  9991
2 39156  64.9583 100.8814 0063813  90.5276 270.2257  2.08292003 87324
1 39156U 13019B   24291.92956494  .00000053  00000-0  00000-0 0  9992
2 39156  64.9583 100.8814 0063813  90.5276 270.2257  2.08292003 87098
1 39156U 13019B   24294.33003188  .00000036  00000-0  00000+0 0  9993
2 39156  64.9595 100.8044 0063819  90.5328 270.2088  2.08292022 87374
1 39156U 13019B   24294.33003188  .00000036  00000-0  00000-0 0  9994
2 39156  64.9595 100.8044 0063819  90.5328 270.2088  2.08292022 87149
1 39156U 13019B   24296.73051562  .00000048  00000-0  00000-0 0  9992
2 39156  64.9606 100.7274 0063853  90.4908 270.2519  2.08292059 87191
1 39156U 13019B   24296.73051578  .00000048  00000-0  00000+0 0  9998
2 39156  64.9607 100.7274 0063851  90.4999 270.2428  2.08292047 87422
1 39156U 13019B   24296.73051578  .00000048  00000-0  00000-0 0  9999
2 39156  64.9607 100.7274 0063851  90.4999 270.2428  2.08292047 87196
1 39156U 13019B   24300.57129490  .00000072  00000-0  00000+0 0  9992
2 39156  64.9622 100.6039 0063864  90.4467 270.3020  2.08292112 87502
1 39156U 13019B   24301.53148625  .00000070  00000-0  00000-0 0  9999
2 39156  64.9625 100.5732 0063865  90.4405 270.3071  2.08292118 87295
1 39156U 13019B   24301.53148626  .00000070  00000-0  00000-0 0  9990
2 39156  64.9625 100.5731 0063870  90.4379 270.3097  2.08292119 87299
1 39156U 13019B   24303.45186446  .00000059  00000-0  00000+0 0  9991
2 39156  64.9634 100.5115 0063893  90.4288 270.3131  2.08292122 87562
1 39156U 13019B   24303.45186446  .00000059  00000-0  00000-0 0  9992
2 39156  64.9634 100.5115 0063893  90.4288 270.3131  2.08292122 87337
1 39156U 13019B   24303.93195831  .00000056  00000-0  00000-0 0  9990
2 39156  64.9637 100.4962 0063901  90.4300 270.3100  2.08292121 87340
1 39156U 13019B   24305.37223914  .00000048  00000-0  00000-0 0  9995
2 39156  64.9643 100.4501 0063905  90.4260 270.3076  2.08292113 87371
1 39156U 13019B   24313.53387830  .00000083  00000-0  00000+0 0  9998
2 39156  64.9678 100.1887 0063961  90.3048 270.4287  2.08292012 87775
1 39156U 13019B   24313.53387830  .00000083  00000-0  00000-0 0  9999
2 39156  64.9678 100.1887 0063961  90.3048 270.4287  2.08292012 87540
1 39156U 13019B   24316.41445360  .00000072  00000-0  00000+0 0  9999
2 39156  64.9690 100.0960 0063892  90.3006 270.4286  2.08291946 87838
1 39156U 13019B   24316.41445360  .00000072  00000-0  00000-0 0  9990
2 39156  64.9690 100.0960 0063892  90.3006 270.4286  2.08291946 87603
1 39156U 13019B   24318.81491767  .00000038  00000-0  00000+0 0  9999
2 39156  64.9699 100.0190 0063902  90.2755 270.4396  2.08291944 87889
1 39156U 13019B   24318.81491767  .00000038  00000-0  00000-0 0  9990
2 39156  64.9699 100.0190 0063902  90.2755 270.4396  2.08291944 87654
